{"type": "FeatureCollection", "features": [ {"type": "Feature", "properties": {"norad_id": 41836, "name": "HIMAWARI-9", "group": "weather", "lat": 0.02467352396284939, "lon": 174.64016323255063, "alt_km": 35787.78053273845, "timestamp": "2025-12-14T20:40:31.410139+00:00", "meta": {"OBJECT_NAME": "HIMAWARI-9", "OBJECT_ID": "2016-064A", "EPOCH": "2025-12-14T07:14:25.465632", "MEAN_MOTION": 1.00268556, "ECCENTRICITY": 0.00010406, "INCLINATION": 0.0402, "RA_OF_ASC_NODE": 95.6919, "ARG_OF_PERICENTER": 178.7045, "MEAN_ANOMALY": 58.1957, "EPHEMERIS_TYPE": 0, "CLASSIFICATION_TYPE": "U", "NORAD_CAT_ID": 41836, "ELEMENT_SET_NO": 999, "REV_AT_EPOCH": 3335, "BSTAR": 0, "MEAN_MOTION_DOT": -2.57e-06, "MEAN_MOTION_DDOT": 0}, "tle": {"line1": "1 41836U 16064A   25348.30168363 -.00000257  00000+0  00000+0 0  9994", "line2": "2 41836   0.0402  95.6919 0001040 178.7045  58.1957  1.00268556 33358"}}, "geometry": {"type": "Point", "coordinates": [174.64016323255063, 0.02467352396284939]}}, {"type": "Feature", "properties": {"norad_id": 41866, "name": "GOES 16", "group": "weather", "lat": -0.02499560241789783, "lon": -70.76565631915304, "alt_km": 35774.08400518611, "timestamp": "2025-12-14T20:40:31.410152+00:00", "meta": {"OBJECT_NAME": "GOES 16", "OBJECT_ID": "2016-071A", "EPOCH": "2025-12-14T06:04:24.670848", "MEAN_MOTION": 1.00271691, "ECCENTRICITY": 0.00031554, "INCLINATION": 0.0669, "RA_OF_ASC_NODE": 104.3904, "ARG_OF_PERICENTER": 159.1031, "MEAN_ANOMALY": 166.1074, "EPHEMERIS_TYPE": 0, "CLASSIFICATION_TYPE": "U", "NORAD_CAT_ID": 41866, "ELEMENT_SET_NO": 999, "REV_AT_EPOCH": 3324, "BSTAR": 0, "MEAN_MOTION_DOT": -7.3e-07, "MEAN_MOTION_DDOT": 0}, "tle": {"line1": "1 41866U 16071A   25348.25306332 -.00000073  00000+0  00000+0 0  9995", "line2": "2 41866   0.0669 104.3904 0003155 159.1031 166.1074  1.00271691 33247"}}, "geometry": {"type": "Point", "coordinates": [-70.76565631915304, -0.02499560241789783]}}, {"type": "Feature", "properties": {"norad_id": 41882, "name": "FENGYUN 4A", "group": "weather", "lat": 1.7939461575949234, "lon": 157.6509646799095, "alt_km": 35779.99240240441, "timestamp": "2025-12-14T20:40:31.410202+00:00", "meta": {"OBJECT_NAME": "FENGYUN 4A", "OBJECT_ID": "2016-077A", "EPOCH": "2025-12-14T07:09:33.431904", "MEAN_MOTION": 1.00269016, "ECCENTRICITY": 0.00047308, "INCLINATION": 1.8534, "RA_OF_ASC_NODE": 82.377, "ARG_OF_PERICENTER": 145.431, "MEAN_ANOMALY": 86.618, "EPHEMERIS_TYPE": 0, "CLASSIFICATION_TYPE": "U", "NORAD_CAT_ID": 41882, "ELEMENT_SET_NO": 999, "REV_AT_EPOCH": 3307, "BSTAR": 0, "MEAN_MOTION_DOT": -3.39e-06, "MEAN_MOTION_DDOT": 0}, "tle": {"line1": "1 41882U 16077A   25348.29830361 -.00000339  00000+0  00000+0 0  9992", "line2": "2 41882   1.8534  82.3770 0004730 145.4310  86.6180  1.00269016 33072"}}, "geometry": {"type": "Point", "coordinates": [157.6509646799095, 1.7939461575949234]}}, {"type": "Feature", "properties": {"norad_id": 41884, "name": "CYGFM05", "group": "weather", "lat": -19.73912570331541, "lon": 2.368551957381338, "alt_km": 428.04017676963576, "timestamp": "2025-12-14T20:40:31.410225+00:00", "meta": {"OBJECT_NAME": "CYGFM05", "OBJECT_ID": "2016-078A", "EPOCH": "2025-12-14T06:53:54.923136", "MEAN_MOTION": 15.47708075, "ECCENTRICITY": 0.00102915, "INCLINATION": 34.9603, "RA_OF_ASC_NODE": 37.0208, "ARG_OF_PERICENTER": 197.1961, "MEAN_ANOMALY": 162.8413, "EPHEMERIS_TYPE": 0, "CLASSIFICATION_TYPE": "U", "NORAD_CAT_ID": 41884, "ELEMENT_SET_NO": 999, "REV_AT_EPOCH": 50000, "BSTAR": 0.0003806598, "MEAN_MOTION_DOT": 0.00020346, "MEAN_MOTION_DDOT": 0}, "tle": {"line1": "1 41884U 16078A   25348.28744124  .00020346  00000+0  38066-3 0  9991", "line2": "2 41884  34.9603  37.0208 0010291 197.1961 162.8413 15.47708075500003"}}, "geometry": {"type": "Point", "coordinates": [2.368551957381338, -19.73912570331541]}}, {"type": "Feature", "properties": {"norad_id": 41885, "name": "CYGFM04", "group": "weather", "lat": -23.49374744017282, "lon": -133.4988246555705, "alt_km": 410.23250680884394, "timestamp": "2025-12-14T20:40:31.410244+00:00", "meta": {"OBJECT_NAME": "CYGFM04", "OBJECT_ID": "2016-078B", "EPOCH": "2025-12-14T07:21:03.014496", "MEAN_MOTION": 15.50439337, "ECCENTRICITY": 0.00095999, "INCLINATION": 34.9358, "RA_OF_ASC_NODE": 11.6292, "ARG_OF_PERICENTER": 223.9636, "MEAN_ANOMALY": 136.0322, "EPHEMERIS_TYPE": 0, "CLASSIFICATION_TYPE": "U", "NORAD_CAT_ID": 41885, "ELEMENT_SET_NO": 999, "REV_AT_EPOCH": 50018, "BSTAR": 0.000397126, "MEAN_MOTION_DOT": 0.00023384, "MEAN_MOTION_DDOT": 0}, "tle": {"line1": "1 41885U 16078B   25348.30628489  .00023384  00000+0  39713-3 0  9995", "line2": "2 41885  34.9358  11.6292 0009599 223.9636 136.0322 15.50439337500185"}}, "geometry": {"type": "Point", "coordinates": [-133.4988246555705, -23.49374744017282]}}, {"type": "Feature", "properties": {"norad_id": 41886, "name": "CYGFM02", "group": "weather", "lat": -32.010658370079604, "lon": -110.17366237323068, "alt_km": 406.0336242307594, "timestamp": "2025-12-14T20:40:31.410255+00:00", "meta": {"OBJECT_NAME": "CYGFM02", "OBJECT_ID": "2016-078C", "EPOCH": "2025-12-14T08:48:19.081728", "MEAN_MOTION": 15.51827213, "ECCENTRICITY": 0.00112542, "INCLINATION": 34.9446, "RA_OF_ASC_NODE": 9.5368, "ARG_OF_PERICENTER": 224.277, "MEAN_ANOMALY": 135.7053, "EPHEMERIS_TYPE": 0, "CLASSIFICATION_TYPE": "U", "NORAD_CAT_ID": 41886, "ELEMENT_SET_NO": 999, "REV_AT_EPOCH": 50032, "BSTAR": 0.00040407159, "MEAN_MOTION_DOT": 0.00025031, "MEAN_MOTION_DDOT": 0}, "tle": {"line1": "1 41886U 16078C   25348.36688752  .00025031  00000+0  40407-3 0  9994", "line2": "2 41886  34.9446   9.5368 0011254 224.2770 135.7053 15.51827213500326"}}, "geometry": {"type": "Point", "coordinates": [-110.17366237323068, -32.010658370079604]}}, {"type": "Feature", "properties": {"norad_id": 41887, "name": "CYGFM01", "group": "weather", "lat": 7.0819737377674015, "lon": 45.85450112839108, "alt_km": 426.2841220516775, "timestamp": "2025-12-14T20:40:31.410266+00:00", "meta": {"OBJECT_NAME": "CYGFM01", "OBJECT_ID": "2016-078D", "EPOCH": "2025-12-14T06:41:40.644960", "MEAN_MOTION": 15.48289142, "ECCENTRICITY": 0.00098873, "INCLINATION": 34.9434, "RA_OF_ASC_NODE": 39.415, "ARG_OF_PERICENTER": 189.5055, "MEAN_ANOMALY": 170.548, "EPHEMERIS_TYPE": 0, "CLASSIFICATION_TYPE": "U", "NORAD_CAT_ID": 41887, "ELEMENT_SET_NO": 999, "REV_AT_EPOCH": 49994, "BSTAR": 0.00039179884, "MEAN_MOTION_DOT": 0.00021374, "MEAN_MOTION_DDOT": 0}, "tle": {"line1": "1 41887U 16078D   25348.27894265  .00021374  00000+0  39180-3 0  9995", "line2": "2 41887  34.9434  39.4150 0009887 189.5055 170.5480 15.48289142499948"}}, "geometry": {"type": "Point", "coordinates": [45.85450112839108, 7.0819737377674015]}}, {"type": "Feature", "properties": {"norad_id": 41888, "name": "CYGFM08", "group": "weather", "lat": 32.564494081667114, "lon": 84.71427975499216, "alt_km": 418.7940540287036, "timestamp": "2025-12-14T20:40:31.410277+00:00", "meta": {"OBJECT_NAME": "CYGFM08", "OBJECT_ID": "2016-078E", "EPOCH": "2025-12-14T06:27:27.596160", "MEAN_MOTION": 15.49498594, "ECCENTRICITY": 0.00117411, "INCLINATION": 34.9468, "RA_OF_ASC_NODE": 22.4535, "ARG_OF_PERICENTER": 212.449, "MEAN_ANOMALY": 147.5511, "EPHEMERIS_TYPE": 0, "CLASSIFICATION_TYPE": "U", "NORAD_CAT_ID": 41888, "ELEMENT_SET_NO": 999, "REV_AT_EPOCH": 50017, "BSTAR": 0.00039919457, "MEAN_MOTION_DOT": 0.00022751, "MEAN_MOTION_DDOT": 0}, "tle": {"line1": "1 41888U 16078E   25348.26906940  .00022751  00000+0  39919-3 0  9999", "line2": "2 41888  34.9468  22.4535 0011741 212.4490 147.5511 15.49498594500177"}}, "geometry": {"type": "Point", "coordinates": [84.71427975499216, 32.564494081667114]}}, {"type": "Feature", "properties": {"norad_id": 41890, "name": "CYGFM07", "group": "weather", "lat": 30.4587543943307, "lon": 64.90180966403062, "alt_km": 417.4083561643856, "timestamp": "2025-12-14T20:40:31.410288+00:00", "meta": {"OBJECT_NAME": "CYGFM07", "OBJECT_ID": "2016-078G", "EPOCH": "2025-12-14T06:29:47.559840", "MEAN_MOTION": 15.50081165, "ECCENTRICITY": 0.00100153, "INCLINATION": 34.9483, "RA_OF_ASC_NODE": 11.4157, "ARG_OF_PERICENTER": 228.8851, "MEAN_ANOMALY": 131.1007, "EPHEMERIS_TYPE": 0, "CLASSIFICATION_TYPE": "U", "NORAD_CAT_ID": 41890, "ELEMENT_SET_NO": 999, "REV_AT_EPOCH": 50019, "BSTAR": 0.0004013252, "MEAN_MOTION_DOT": 0.00023335, "MEAN_MOTION_DDOT": 0}, "tle": {"line1": "1 41890U 16078G   25348.27068935  .00023335  00000+0  40133-3 0  9995", "line2": "2 41890  34.9483  11.4157 0010015 228.8851 131.1007 15.50081165500195"}}, "geometry": {"type": "Point", "coordinates": [64.90180966403062, 30.4587543943307]}}, {"type": "Feature", "properties": {"norad_id": 41891, "name": "CYGFM03", "group": "weather", "lat": -33.80549936680505, "lon": -97.01304252639504, "alt_km": 413.4760842913229, "timestamp": "2025-12-14T20:40:31.410299+00:00", "meta": {"OBJECT_NAME": "CYGFM03", "OBJECT_ID": "2016-078H", "EPOCH": "2025-12-14T07:12:31.379616", "MEAN_MOTION": 15.49981967, "ECCENTRICITY": 0.00093997, "INCLINATION": 34.9438, "RA_OF_ASC_NODE": 13.1407, "ARG_OF_PERICENTER": 216.7874, "MEAN_ANOMALY": 143.2204, "EPHEMERIS_TYPE": 0, "CLASSIFICATION_TYPE": "U", "NORAD_CAT_ID": 41891, "ELEMENT_SET_NO": 999, "REV_AT_EPOCH": 50017, "BSTAR": 0.00039413301, "MEAN_MOTION_DOT": 0.00022828, "MEAN_MOTION_DDOT": 0}, "tle": {"line1": "1 41891U 16078H   25348.30036319  .00022828  00000+0  39413-3 0  9996", "line2": "2 41891  34.9438  13.1407 0009399 216.7874 143.2204 15.49981967500175"}}, "geometry": {"type": "Point", "coordinates": [-97.01304252639504, -33.80549936680505]}}]}